{"type": "FeatureCollection", "features": [ {"type": "Feature", "properties": {"norad_id": 43107, "name": "BEIDOU-3 M7 (C27)", "group": "gnss", "lat": -22.252584556765328, "lon": 145.35497119998715, "alt_km": 21537.28818386896, "timestamp": "2025-12-24T14:43:29.245449+00:00", "meta": {"OBJECT_NAME": "BEIDOU-3 M7 (C27)", "OBJECT_ID": "2018-003A", "EPOCH": "2025-12-23T05:31:08.538816", "MEAN_MOTION": 1.86232625, "ECCENTRICITY": 0.0002961, "INCLINATION": 54.4874, "RA_OF_ASC_NODE": 308.4506, "ARG_OF_PERICENTER": 66.5422, "MEAN_ANOMALY": 293.4915, "EPHEMERIS_TYPE": 0, "CLASSIFICATION_TYPE": "U", "NORAD_CAT_ID": 43107, "ELEMENT_SET_NO": 999, "REV_AT_EPOCH": 5407, "BSTAR": 0, "MEAN_MOTION_DOT": -5.5e-07, "MEAN_MOTION_DDOT": 0}, "tle": {"line1": "1 43107U 18003A   25357.22995994 -.00000055  00000+0  00000+0 0  9997", "line2": "2 43107  54.4874 308.4506 0002961  66.5422 293.4915  1.86232625 54072"}}, "geometry": {"type": "Point", "coordinates": [145.35497119998715, -22.252584556765328]}}, {"type": "Feature", "properties": {"norad_id": 43108, "name": "BEIDOU-3 M8 (C28)", "group": "gnss", "lat": -47.258517025992276, "lon": 178.91349968181484, "alt_km": 21522.85335744471, "timestamp": "2025-12-24T14:43:29.245460+00:00", "meta": {"OBJECT_NAME": "BEIDOU-3 M8 (C28)", "OBJECT_ID": "2018-003B", "EPOCH": "2025-12-23T17:05:08.287008", "MEAN_MOTION": 1.86231111, "ECCENTRICITY": 0.00045887, "INCLINATION": 54.4799, "RA_OF_ASC_NODE": 308.4164, "ARG_OF_PERICENTER": 279.1065, "MEAN_ANOMALY": 80.8458, "EPHEMERIS_TYPE": 0, "CLASSIFICATION_TYPE": "U", "NORAD_CAT_ID": 43108, "ELEMENT_SET_NO": 999, "REV_AT_EPOCH": 5409, "BSTAR": 0, "MEAN_MOTION_DOT": -5.4e-07, "MEAN_MOTION_DDOT": 0}, "tle": {"line1": "1 43108U 18003B   25357.71190147 -.00000054  00000+0  00000+0 0  9998", "line2": "2 43108  54.4799 308.4164 0004588 279.1065  80.8458  1.86231111 54092"}}, "geometry": {"type": "Point", "coordinates": [178.91349968181484, -47.258517025992276]}}, {"type": "Feature", "properties": {"norad_id": 43207, "name": "BEIDOU-3 M4 (C22)", "group": "gnss", "lat": -41.00660291257211, "lon": 33.81328394967314, "alt_km": 21526.284347217148, "timestamp": "2025-12-24T14:43:29.245471+00:00", "meta": {"OBJECT_NAME": "BEIDOU-3 M4 (C22)", "OBJECT_ID": "2018-018A", "EPOCH": "2025-12-24T03:41:38.933376", "MEAN_MOTION": 1.86231211, "ECCENTRICITY": 0.00041659, "INCLINATION": 56.4949, "RA_OF_ASC_NODE": 68.9271, "ARG_OF_PERICENTER": 3.2866, "MEAN_ANOMALY": 356.7703, "EPHEMERIS_TYPE": 0, "CLASSIFICATION_TYPE": "U", "NORAD_CAT_ID": 43207, "ELEMENT_SET_NO": 999, "REV_AT_EPOCH": 5348, "BSTAR": 0, "MEAN_MOTION_DOT": -2.4e-07, "MEAN_MOTION_DDOT": 0}, "tle": {"line1": "1 43207U 18018A   25358.15392284 -.00000024  00000+0  00000+0 0  9996", "line2": "2 43207  56.4949  68.9271 0004165   3.2866 356.7703  1.86231211 53485"}}, "geometry": {"type": "Point", "coordinates": [33.81328394967314, -41.00660291257211]}}, {"type": "Feature", "properties": {"norad_id": 43208, "name": "BEIDOU-3 M3 (C21)", "group": "gnss", "lat": -55.952841580105314, "lon": -32.7922421145327, "alt_km": 21521.419593415525, "timestamp": "2025-12-24T14:43:29.245485+00:00", "meta": {"OBJECT_NAME": "BEIDOU-3 M3 (C21)", "OBJECT_ID": "2018-018B", "EPOCH": "2025-12-24T05:17:24.764064", "MEAN_MOTION": 1.86231449, "ECCENTRICITY": 0.00070747, "INCLINATION": 56.4943, "RA_OF_ASC_NODE": 68.9291, "ARG_OF_PERICENTER": 313.8802, "MEAN_ANOMALY": 46.1157, "EPHEMERIS_TYPE": 0, "CLASSIFICATION_TYPE": "U", "NORAD_CAT_ID": 43208, "ELEMENT_SET_NO": 999, "REV_AT_EPOCH": 5348, "BSTAR": 0, "MEAN_MOTION_DOT": -2.4e-07, "MEAN_MOTION_DDOT": 0}, "tle": {"line1": "1 43208U 18018B   25358.22042551 -.00000024  00000+0  00000+0 0  9994", "line2": "2 43208  56.4943  68.9291 0007074 313.8802  46.1157  1.86231449 53480"}}, "geometry": {"type": "Point", "coordinates": [-32.7922421145327, -55.952841580105314]}}, {"type": "Feature", "properties": {"norad_id": 43245, "name": "BEIDOU-3 M9 (C29)", "group": "gnss", "lat": 45.548929426614094, "lon": 79.09584754837266, "alt_km": 21527.121078308963, "timestamp": "2025-12-24T14:43:29.245498+00:00", "meta": {"OBJECT_NAME": "BEIDOU-3 M9 (C29)", "OBJECT_ID": "2018-029A", "EPOCH": "2025-12-23T21:35:38.632416", "MEAN_MOTION": 1.86228339, "ECCENTRICITY": 0.000155, "INCLINATION": 54.3557, "RA_OF_ASC_NODE": 306.0793, "ARG_OF_PERICENTER": 289.9635, "MEAN_ANOMALY": 70.0266, "EPHEMERIS_TYPE": 0, "CLASSIFICATION_TYPE": "U", "NORAD_CAT_ID": 43245, "ELEMENT_SET_NO": 999, "REV_AT_EPOCH": 5263, "BSTAR": 0, "MEAN_MOTION_DOT": -5.2e-07, "MEAN_MOTION_DDOT": 0}, "tle": {"line1": "1 43245U 18029A   25357.89975269 -.00000052  00000+0  00000+0 0  9991", "line2": "2 43245  54.3557 306.0793 0001550 289.9635  70.0266  1.86228339 52639"}}, "geometry": {"type": "Point", "coordinates": [79.09584754837266, 45.548929426614094]}}, {"type": "Feature", "properties": {"norad_id": 43246, "name": "BEIDOU-3 M10 (C30)", "group": "gnss", "lat": 14.497905056870811, "lon": 115.38114844549997, "alt_km": 21537.757797560924, "timestamp": "2025-12-24T14:43:29.245510+00:00", "meta": {"OBJECT_NAME": "BEIDOU-3 M10 (C30)", "OBJECT_ID": "2018-029B", "EPOCH": "2025-12-23T07:09:06.922656", "MEAN_MOTION": 1.86229257, "ECCENTRICITY": 0.00043036, "INCLINATION": 54.3535, "RA_OF_ASC_NODE": 306.127, "ARG_OF_PERICENTER": 3.3658, "MEAN_ANOMALY": 356.6419, "EPHEMERIS_TYPE": 0, "CLASSIFICATION_TYPE": "U", "NORAD_CAT_ID": 43246, "ELEMENT_SET_NO": 999, "REV_AT_EPOCH": 5260, "BSTAR": 0, "MEAN_MOTION_DOT": -5.3e-07, "MEAN_MOTION_DDOT": 0}, "tle": {"line1": "1 43246U 18029B   25357.29799679 -.00000053  00000+0  00000+0 0  9996", "line2": "2 43246  54.3535 306.1270 0004303   3.3658 356.6419  1.86229257 52609"}}, "geometry": {"type": "Point", "coordinates": [115.38114844549997, 14.497905056870811]}}, {"type": "Feature", "properties": {"norad_id": 43286, "name": "IRNSS-1I", "group": "gnss", "lat": -26.775765473253156, "lon": 12.401486706882334, "alt_km": 35812.831866149834, "timestamp": "2025-12-24T14:43:29.245521+00:00", "meta": {"OBJECT_NAME": "IRNSS-1I", "OBJECT_ID": "2018-035A", "EPOCH": "2025-12-20T19:47:21.482880", "MEAN_MOTION": 1.00273791, "ECCENTRICITY": 0.0021634, "INCLINATION": 29.167, "RA_OF_ASC_NODE": 76.974, "ARG_OF_PERICENTER": 186.9634, "MEAN_ANOMALY": 177.5378, "EPHEMERIS_TYPE": 0, "CLASSIFICATION_TYPE": "U", "NORAD_CAT_ID": 43286, "ELEMENT_SET_NO": 999, "REV_AT_EPOCH": 2829, "BSTAR": 0, "MEAN_MOTION_DOT": 8.3e-07, "MEAN_MOTION_DDOT": 0}, "tle": {"line1": "1 43286U 18035A   25354.82455420  .00000083  00000+0  00000+0 0  9998", "line2": "2 43286  29.1670  76.9740 0021634 186.9634 177.5378  1.00273791 28295"}}, "geometry": {"type": "Point", "coordinates": [12.401486706882334, -26.775765473253156]}}, {"type": "Feature", "properties": {"norad_id": 43508, "name": "COSMOS 2527 (756)", "group": "gnss", "lat": 59.94615095527469, "lon": 131.71921626535547, "alt_km": 19144.2050140073, "timestamp": "2025-12-24T14:43:29.245535+00:00", "meta": {"OBJECT_NAME": "COSMOS 2527 (756)", "OBJECT_ID": "2018-053A", "EPOCH": "2025-12-23T02:40:53.485824", "MEAN_MOTION": 2.13102391, "ECCENTRICITY": 0.00089977, "INCLINATION": 65.4775, "RA_OF_ASC_NODE": 79.785, "ARG_OF_PERICENTER": 227.5336, "MEAN_ANOMALY": 132.4355, "EPHEMERIS_TYPE": 0, "CLASSIFICATION_TYPE": "U", "NORAD_CAT_ID": 43508, "ELEMENT_SET_NO": 999, "REV_AT_EPOCH": 5852, "BSTAR": 0, "MEAN_MOTION_DOT": 1e-08, "MEAN_MOTION_DDOT": 0}, "tle": {"line1": "1 43508U 18053A   25357.11173016  .00000001  00000+0  00000+0 0  9998", "line2": "2 43508  65.4775  79.7850 0008997 227.5336 132.4355  2.13102391 58528"}}, "geometry": {"type": "Point", "coordinates": [131.71921626535547, 59.94615095527469]}}, {"type": "Feature", "properties": {"norad_id": 43539, "name": "BEIDOU-2 IGSO-7 (C16)", "group": "gnss", "lat": -53.98285491557283, "lon": 57.95712798709748, "alt_km": 35441.96384601854, "timestamp": "2025-12-24T14:43:29.245547+00:00", "meta": {"OBJECT_NAME": "BEIDOU-2 IGSO-7 (C16)", "OBJECT_ID": "2018-057A", "EPOCH": "2025-12-23T21:03:51.666912", "MEAN_MOTION": 1.00254881, "ECCENTRICITY": 0.00930582, "INCLINATION": 55.1784, "RA_OF_ASC_NODE": 164.5741, "ARG_OF_PERICENTER": 235.1099, "MEAN_ANOMALY": 119.1175, "EPHEMERIS_TYPE": 0, "CLASSIFICATION_TYPE": "U", "NORAD_CAT_ID": 43539, "ELEMENT_SET_NO": 999, "REV_AT_EPOCH": 2736, "BSTAR": 0, "MEAN_MOTION_DOT": -6.1e-07, "MEAN_MOTION_DDOT": 0}, "tle": {"line1": "1 43539U 18057A   25357.87768133 -.00000061  00000+0  00000+0 0  9996", "line2": "2 43539  55.1784 164.5741 0093058 235.1099 119.1175  1.00254881 27360"}}, "geometry": {"type": "Point", "coordinates": [57.95712798709748, -53.98285491557283]}}, {"type": "Feature", "properties": {"norad_id": 43564, "name": "GSAT0221 (GALILEO 25)", "group": "gnss", "lat": -29.112523350681126, "lon": -172.4913737447787, "alt_km": 23219.260394718764, "timestamp": "2025-12-24T14:43:29.245559+00:00", "meta": {"OBJECT_NAME": "GSAT0221 (GALILEO 25)", "OBJECT_ID": "2018-060A", "EPOCH": "2025-12-23T02:08:34.035648", "MEAN_MOTION": 1.70475773, "ECCENTRICITY": 0.00067192, "INCLINATION": 57.2255, "RA_OF_ASC_NODE": 346.5383, "ARG_OF_PERICENTER": 286.3445, "MEAN_ANOMALY": 73.589, "EPHEMERIS_TYPE": 0, "CLASSIFICATION_TYPE": "U", "NORAD_CAT_ID": 43564, "ELEMENT_SET_NO": 999, "REV_AT_EPOCH": 4616, "BSTAR": 0, "MEAN_MOTION_DOT": -6.3e-07, "MEAN_MOTION_DDOT": 0}, "tle": {"line1": "1 43564U 18060A   25357.08928282 -.00000063  00000+0  00000+0 0  9996", "line2": "2 43564  57.2255 346.5383 0006719 286.3445  73.5890  1.70475773 46167"}}, "geometry": {"type": "Point", "coordinates": [-172.4913737447787, -29.112523350681126]}}]}